[{"OBJECT_NAME":"STARLINK-3445","OBJECT_ID":"2022-016D","EPOCH":"2026-03-09T22:43:04.149120","MEAN_MOTION":15.08836037,"ECCENTRICITY":0.00013436,"INCLINATION":53.2193,"RA_OF_ASC_NODE":328.0547,"ARG_OF_PERICENTER":93.2392,"MEAN_ANOMALY":266.8754,"EPHEMERIS_TYPE":0,"CLASSIFICATION_TYPE":"U","NORAD_CAT_ID":51717,"ELEMENT_SET_NO":999,"REV_AT_EPOCH":22346,"BSTAR":4.293426e-6,"MEAN_MOTION_DOT":-2.2e-6,"MEAN_MOTION_DDOT":0},{"OBJECT_NAME":"CZ-6A DEB","OBJECT_ID":"2022-151YC","EPOCH":"2026-03-09T04:14:53.282976","MEAN_MOTION":14.99280007,"ECCENTRICITY":0.00518471,"INCLINATION":98.6024,"RA_OF_ASC_NODE":155.4435,"ARG_OF_PERICENTER":132.3409,"MEAN_ANOMALY":228.2221,"EPHEMERIS_TYPE":0,"CLASSIFICATION_TYPE":"U","NORAD_CAT_ID":55530,"ELEMENT_SET_NO":999,"REV_AT_EPOCH":17201,"BSTAR":0.0041206483,"MEAN_MOTION_DOT":0.00051995,"MEAN_MOTION_DDOT":0}]
